KEPLER-21               
1 56218U 23054AS  26068.80780274  .00079942  00000+0  58135-3 0  9999
2 56218  97.2962 342.6260 0004885  55.6816 304.4910 15.73096759163494
STARLINK-11692 [DTC]    
1 64381U 25127M   26068.37363166  .00369752  00000+0  27225-2 0  9997
2 64381  42.9990  86.3496 0003150 250.0332 110.0197 15.71154898 43563
